NORAD_CAT_ID,OBJECT_NAME,OBJECT_TYPE,EPOCH,MEAN_MOTION,ECCENTRICITY,INCLINATION,RA_OF_ASC_NODE,ARG_OF_PERICENTER,MEAN_ANOMALY,BSTAR,MEAN_MOTION_DOT,MEAN_MOTION_DDOT,TLE_LINE0,TLE_LINE1,TLE_LINE2,SEMIMAJOR_AXIS,PERIOD,APOGEE,PERIGEE,DECAYED
51960.0,STARLINK-3691,PAYLOAD,2022-05-31 04:04:29,15.22025557,0.0002483,53.2121,97.8879,22.4452,337.6654,-0.0093103,-0.00209742,0.0,0 STARLINK-3691,1 51960U 22025E   22151.16978269 -.00209742  00000-0 -93103-2 0  9995,2 51960  53.2121  97.8879 0002483  22.4452 337.6654 15.22025557 13081,6877.869000000002,94.611,501.441,498.026,0.0
51960.0,STARLINK-3691,PAYLOAD,2022-05-31 13:32:18,15.21579211,0.0002084,53.2125,96.0835,36.8079,323.3062,-0.010372,-0.00229932,0.0,0 STARLINK-3691,1 51960U 22025E   22151.56409984 -.00229932  00000-0 -10372-1 0  9991,2 51960  53.2125  96.0835 0002084  36.8079 323.3062 15.21579211 14232,6879.214,94.639,502.512,499.645,0.0
51960.0,STARLINK-3691,PAYLOAD,2022-05-31 22:00:00,15.19670104,0.0001804,53.2176,94.4576,42.0317,90.2787,-0.035911,-0.00722927,0.0,0 STARLINK-3691,1 51960U 22025E   22151.91667824 -.00722927  00000-0 -35911-1 0  9997,2 51960  53.2176  94.4576 0001804  42.0317  90.2787 15.19670104 14295,6884.974,94.757,508.081,505.597,0.0
51960.0,STARLINK-3691,PAYLOAD,2022-06-01 20:00:01,15.18267415,0.0001794,53.2175,90.2755,40.769,66.8884,-0.037347,-0.00721839,0.0,0 STARLINK-3691,1 51960U 22025E   22152.83334491 -.00721839  00000-0 -37347-1 0  9996,2 51960  53.2175  90.2755 0001794  40.7690  66.8884 15.18267415 14422,6889.214,94.845,512.315,509.843,0.0
51960.0,STARLINK-3691,PAYLOAD,2022-06-03 03:09:11,15.177127100000002,0.0002128,53.2149,84.3837,11.5901,348.5144,-0.0092446,-0.0018431,0.0,0 STARLINK-3691,1 51960U 22025E   22154.13138759 -.00184310  00000-0 -92446-2 0  9999,2 51960  53.2149  84.3837 0002128  11.5901 348.5144 15.17712710 14624,6890.892,94.88,514.224,511.291,0.0
51960.0,STARLINK-3691,PAYLOAD,2022-06-03 12:38:54,15.17085761,0.0002936,53.2139,82.5872,30.9288,329.1880000000001,-0.010845,-0.00211539,0.0,0 STARLINK-3691,1 51960U 22025E   22154.52702178 -.00211539  00000-0 -10845-1 0  9990,2 51960  53.2139  82.5872 0002936  30.9288 329.1880 15.17085761 14689,6892.791,94.919,516.679,512.632,0.0
51960.0,STARLINK-3691,PAYLOAD,2022-06-03 18:58:47,15.16649346,0.0001828,53.2138,81.3906,51.0637,309.0521,-0.010715,-0.00206527,0.0,0 STARLINK-3691,1 51960U 22025E   22154.79082889 -.00206527  00000-0 -10715-1 0  9996,2 51960  53.2138  81.3906 0001828  51.0637 309.0521 15.16649346 14722,6894.113,94.946,517.238,514.7180000000002,0.0
51960.0,STARLINK-3691,PAYLOAD,2022-06-04 01:18:53,15.16153023,0.0001135,53.2137,80.1944,33.4066,326.7,-0.011368,-0.00215726,0.0,0 STARLINK-3691,1 51960U 22025E   22155.05478935 -.00215726  00000-0 -11368-1 0  9993,2 51960  53.2137  80.1944 0001135  33.4066 326.7000 15.16153023 14765,6895.6169999999975,94.977,518.265,516.7,0.0
51960.0,STARLINK-3691,PAYLOAD,2022-06-04 12:24:02,15.15512421,0.0002961,53.2136,78.101,42.7323,317.3901,-0.01172,-0.00218341,0.0,0 STARLINK-3691,1 51960U 22025E   22155.51669587 -.00218341  00000-0 -11720-1 0  9997,2 51960  53.2136  78.1010 0002961  42.7323 317.3901 15.15512421 14836,6897.56,95.017,521.4680000000002,517.383,0.0
51960.0,STARLINK-3691,PAYLOAD,2022-06-05 22:00:00,15.1202105,0.0001965,53.2175,71.7582,33.7345,38.7134,-0.044752,-0.00723843,0.0,0 STARLINK-3691,1 51960U 22025E   22156.91667824 -.00723843  00000-0 -44752-1 0  9993,2 51960  53.2175  71.7582 0001965  33.7345  38.7134 15.12021050 15045,6908.174,95.237,531.3969999999998,528.682,0.0
51960.0,STARLINK-3691,PAYLOAD,2022-06-06 14:00:01,15.10998843,0.0001813,53.2174,68.7507,38.4861,63.5641,-0.045784,-0.00719961,0.0,0 STARLINK-3691,1 51960U 22025E   22157.58334491 -.00719961  00000-0 -45784-1 0  9990,2 51960  53.2174  68.7507 0001813  38.4861  63.5641 15.10998843  1308,6911.29,95.301,534.408,531.9019999999998,0.0
51960.0,STARLINK-3691,PAYLOAD,2022-06-06 22:00:00,15.10490261,0.0001891,53.2174,67.2502,39.5471,76.3835,-0.04661,-0.00722483,0.0,0 STARLINK-3691,1 51960U 22025E   22157.91667824 -.00722483  00000-0 -46610-1 0  9998,2 51960  53.2174  67.2502 0001891  39.5471  76.3835 15.10490261  1300,6912.840999999999,95.333,536.013,533.399,0.0
51960.0,STARLINK-3691,PAYLOAD,2022-06-07 06:00:00,15.0997876,0.0001651,53.2171,65.7506,48.5267,80.6723,-0.047034,-0.00719012,0.0,0 STARLINK-3691,1 51960U 22025E   22158.25001157 -.00719012  00000-0 -47034-1 0  9992,2 51960  53.2171  65.7506 0001651  48.5267  80.6723 15.09978760 15257,6914.401999999999,95.366,537.408,535.125,0.0
51960.0,STARLINK-3691,PAYLOAD,2022-06-07 14:00:01,15.09454633,0.0001845,53.2173,64.25,39.5085,102.3502,-0.045482,-0.00687495,0.0,0 STARLINK-3691,1 51960U 22025E   22158.58334491 -.00687495  00000-0 -45482-1 0  9992,2 51960  53.2173  64.2500 0001845  39.5085 102.3502 15.09454633  1306,6916.002,95.399,539.143,536.591,0.0
51960.0,STARLINK-3691,PAYLOAD,2022-06-07 22:00:00,15.08855493,0.0001897,53.2175,62.7535,39.175,114.7327,-0.0019516,-0.00031227,0.0,0 STARLINK-3691,1 51960U 22025E   22158.91667824 -.00031227  00000-0 -19516-2 0  9994,2 51960  53.2175  62.7535 0001897  39.1750 114.7327 15.08855493 15351,6917.833000000001,95.437,541.01,538.386,0.0
51960.0,STARLINK-3691,PAYLOAD,2022-06-08 14:00:01,15.08846879,0.0001725,53.2131,59.7663,47.4955,129.7427,0.0033127,0.00052839,0.0,0 STARLINK-3691,1 51960U 22025E   22159.58334491  .00052839  00000-0  33127-2 0  9993,2 51960  53.2131  59.7663 0001725  47.4955 129.7427 15.08846879 15456,6917.859,95.437,540.918,538.531,0.0
51960.0,STARLINK-3691,PAYLOAD,2022-06-08 22:00:01,15.08895928,0.000184,53.2133,58.271,46.4188,142.4906,-0.0061915,-0.00097644,0.0,0 STARLINK-3691,1 51960U 22025E   22159.91668981 -.00097644  00000-0 -61915-2 0  9995,2 51960  53.2133  58.2710 0001840  46.4188 142.4906 15.08895928 15509,6917.709,95.434,540.847,538.302,0.0
51960.0,STARLINK-3691,PAYLOAD,2022-06-09 14:00:01,15.08783932,0.000179,53.213,55.2768,51.0214,161.0176,0.0027839,0.00044228,0.0,0 STARLINK-3691,1 51960U 22025E   22160.58334491  .00044228  00000-0  27839-2 0  9991,2 51960  53.2130  55.2768 0001790  51.0214 161.0176 15.08783932  1302,6918.052,95.441,541.155,538.678,0.0
51960.0,STARLINK-3691,PAYLOAD,2022-06-09 22:00:00,15.0882067,0.0001919,53.2132,53.7818,49.8282,173.7589,-0.0011605,-0.00018701,0.0,0 STARLINK-3691,1 51960U 22025E   22160.91667824 -.00018701  00000-0 -11605-2 0  9990,2 51960  53.2132  53.7818 0001919  49.8282 173.7589 15.08820670  1305,6917.939,95.439,541.132,538.477,0.0
51960.0,STARLINK-3691,PAYLOAD,2022-06-10 00:00:00,15.08811847,0.0001985,53.2131,53.4081,48.8554,267.6252,-8.7554e-05,-1.6800000000000002e-05,0.0,0 STARLINK-3691,1 51960U 22025E   22161.00001157 -.00001680  00000-0 -87554-4 0  9998,2 51960  53.2131  53.4081 0001985  48.8554 267.6252 15.08811847 15667,6917.965999999999,95.439,541.205,538.4580000000002,0.0
51960.0,STARLINK-3691,PAYLOAD,2022-06-10 14:00:01,15.08805361,0.0001836,53.2128,50.7872,54.1588,192.5773,0.0029963,0.00047676,0.0,0 STARLINK-3691,1 51960U 22025E   22161.58334491  .00047676  00000-0  29963-2 0  9992,2 51960  53.2128  50.7872 0001836  54.1588 192.5773 15.08805361  1307,6917.986,95.44,541.121,538.581,0.0
51960.0,STARLINK-3691,PAYLOAD,2022-06-10 22:00:00,15.08841409,0.0001973,53.2129,49.2924,51.9402,206.3722,-0.00078699,-0.00012792,0.0,0 STARLINK-3691,1 51960U 22025E   22161.91667824 -.00012792  00000-0 -78699-3 0  9992,2 51960  53.2129  49.2924 0001973  51.9402 206.3722 15.08841409 15802,6917.876,95.437,541.106,538.376,0.0
51960.0,STARLINK-3691,PAYLOAD,2022-06-11 14:00:01,15.08834672,0.0001927,53.2151,46.2941,57.0192,224.4953,0.0026053,0.00041414,0.0,0 STARLINK-3691,1 51960U 22025E   22162.58334491  .00041414  00000-0  26053-2 0  9994,2 51960  53.2151  46.2941 0001927  57.0192 224.4953 15.08834672 15907,6917.897,95.438,541.095,538.429,0.0
51960.0,STARLINK-3691,PAYLOAD,2022-06-11 22:00:00,15.0887566,0.0001999,53.2129,44.803,52.1943,240.9243,-0.0036105,-0.00057349,0.0,0 STARLINK-3691,1 51960U 22025E   22162.91667824 -.00057349  00000-0 -36105-2 0  9995,2 51960  53.2129  44.8030 0001999  52.1943 240.9243 15.08875660  1300,6917.771,95.435,541.019,538.254,0.0
51960.0,STARLINK-3691,PAYLOAD,2022-06-12 06:00:02,15.08851239,0.0001963,53.2127,43.3064,48.4925,256.2998,-0.00086963,-0.00014106,0.0,0 STARLINK-3691,1 51960U 22025E   22163.25002315 -.00014106  00000-0 -86963-3 0  9993,2 51960  53.2127  43.3064 0001963  48.4925 256.2998 15.08851239 16004,6917.846,95.437,541.069,538.3530000000002,0.0
51960.0,STARLINK-3691,PAYLOAD,2022-06-12 14:00:01,15.08830538,0.0001854,53.2129,41.8084,55.0527,261.2848,0.002619,0.00041629,0.0,0 STARLINK-3691,1 51960U 22025E   22163.58334491  .00041629  00000-0  26190-2 0  9995,2 51960  53.2129  41.8084 0001854  55.0527 261.2848 15.08830538  1308,6917.909000000002,95.438,541.057,538.492,0.0
51960.0,STARLINK-3691,PAYLOAD,2022-06-12 22:00:00,15.08850004,0.000196,53.2131,40.3136,49.8866,278.0487,-0.0023058,-0.00036809,0.0,0 STARLINK-3691,1 51960U 22025E   22163.91667824 -.00036809  00000-0 -23058-2 0  9997,2 51960  53.2131  40.3136 0001960  49.8866 278.0487 15.08850004  1303,6917.85,95.437,541.071,538.359,0.0
51960.0,STARLINK-3691,PAYLOAD,2022-06-13 06:00:02,15.0885271,0.0001917,53.213,38.8168,46.8718,292.7172,-0.00089429,-0.00014498,0.0,0 STARLINK-3691,1 51960U 22025E   22164.25002315 -.00014498  00000-0 -89429-3 0  9998,2 51960  53.2130  38.8168 0001917  46.8718 292.7172 15.08852710 16153,6917.842,95.437,541.033,538.38,0.0
51960.0,STARLINK-3691,PAYLOAD,2022-06-13 14:00:01,15.0883369,0.0001797,53.2133,37.3189,53.4094,297.7247,0.0028611,0.00045533,0.0,0 STARLINK-3691,1 51960U 22025E   22164.58334491  .00045533  00000-0  28611-2 0  9994,2 51960  53.2133  37.3189 0001797  53.4094 297.7247 15.08833690  1305,6917.9,95.438,541.008,538.5219999999998,0.0
